full_name,a,e,i,om,w,q,ad,per_y,data_arc,condition_code,n_obs_used,n_del_obs_used,n_dop_obs_used,H,neo,pha,diameter,diameter_sigma
285 Regina (A889 PA),3.089,0.2041,17.61,311.23,14.49,2.458,3.72,5.43,40685,0,3611,,,10.84,N,N,47.156,0.31
286 Iclea (A889 PB),3.192,0.0240,17.94,148.93,210.09,3.116,3.27,5.7,45630,0,4211,,,9.09,N,N,94.30,2.60
287 Nephthys (A889 QA),2.353,0.0226,10.04,142.32,120.37,2.300,2.41,3.61,48689,0,4234,,,8.34,N,N,59.615,1.28
288 Glauke (A890 DA),2.761,0.2058,4.34,120.11,84.43,2.192,3.33,4.59,47998,0,4305,,,9.85,N,N,28.981,0.57
289 Nenetta (A890 EA),2.876,0.2019,6.68,181.93,190.63,2.296,3.46,4.88,44000,0,4257,,,9.58,N,N,37.586,1.00
291 Alice (A890 HA),2.222,0.0931,1.86,161.59,332.08,2.015,2.43,3.31,47785,0,4651,,,11.51,N,N,10.456,0.42
292 Ludovica (A890 HB),2.53,0.0329,14.89,43.47,286.51,2.447,2.61,4.02,47998,0,3673,,,9.91,N,N,30.864,0.09
293 Brasilia (A890 KA),2.867,0.1029,15.59,61.10,87.49,2.572,3.16,4.85,41539,0,3496,,,10.21,N,N,57.486,1.44
294 Felicia (A890 NA),3.156,0.2330,6.26,135.70,186.27,2.421,3.89,5.61,42613,0,4486,,,10.25,N,N,51.865,0.51
295 Theresia (A890 QA),2.797,0.1674,2.70,275.88,148.34,2.329,3.27,4.68,45124,0,3747,,,10.00,N,N,28.340,0.34
297 Caecilia (A890 RA),3.167,0.1393,7.55,331.90,353.64,2.726,3.61,5.64,44829,0,4150,,,9.16,N,N,39.48,1.80
298 Baptistina (A890 RB),2.263,0.0963,6.29,8.15,134.79,2.046,2.48,3.41,47731,0,3402,,,11.29,N,N,21.135,0.37
299 Thora (A890 TA),2.434,0.0627,1.61,241.45,152.00,2.281,2.59,3.8,32892,0,4087,,,11.41,N,N,15.757,0.08
300 Geraldina (A890 TB),3.212,0.0595,0.73,42.83,322.06,3.021,3.40,5.76,44791,0,4377,,,9.82,N,N,67.373,0.09
301 Bavaria (A890 WA),2.726,0.0662,4.90,142.30,123.86,2.545,2.91,4.5,48227,0,4250,,,10.39,N,N,53.042,0.43
302 Clarissa (A890 VA),2.406,0.1102,3.41,7.73,55.14,2.141,2.67,3.73,47791,0,3717,,,11.14,N,N,38.53,3.10
303 Josephina (A891 CA),3.122,0.0565,6.89,343.65,67.41,2.946,3.30,5.52,48166,0,4133,,,8.96,N,N,124.923,0.95
304 Olga (A891 CB),2.403,0.2216,15.85,159.01,172.55,1.870,2.94,3.72,48103,0,4182,,,9.90,N,N,65.990,0.29
305 Gordonia (A891 DA),3.09,0.1963,4.45,207.46,260.60,2.483,3.70,5.43,47565,0,3748,,,8.89,N,N,47.739,0.19
306 Unitas (A891 EA),2.358,0.1509,7.28,141.86,168.15,2.002,2.71,3.62,48136,0,4032,,,8.85,N,N,47.200,0.13
307 Nike (A891 EB),2.907,0.1439,6.12,100.94,323.95,2.489,3.33,4.96,48125,0,4135,,,10.11,N,N,61.313,0.79
308 Polyxo (A891 FA),2.75,0.0391,4.36,181.59,112.41,2.642,2.86,4.56,48141,0,4825,,,8.17,N,N,128.578,1.56
309 Fraternitas (A891 GA),2.665,0.1137,3.71,356.50,311.23,2.362,2.97,4.35,48077,0,4267,,,10.70,N,N,41.075,0.17
310 Margarita (A891 KA),2.76,0.1167,3.17,229.05,325.00,2.438,3.08,4.59,40193,0,4278,,,10.16,N,N,33.708,0.24
311 Claudia (A891 LA),2.898,0.0056,3.22,80.97,79.36,2.881,2.91,4.93,43972,0,4764,,,10.00,N,N,26.300,0.38
312 Pierretta (A891 QA),2.781,0.1604,9.04,6.20,262.18,2.335,3.23,4.64,47996,0,3940,,,8.85,N,N,46.191,0.41
313 Chaldaea (A891 QB),2.374,0.1819,11.65,176.57,315.82,1.942,2.81,3.66,47416,0,3950,,,9.09,N,N,71.183,17.77
314 Rosalia (A891 RA),3.16,0.1713,12.52,169.97,191.77,2.619,3.70,5.62,47992,0,4149,,,10.03,N,N,60.689,0.28
316 Goberta (A891 RC),3.181,0.1276,2.35,123.79,317.37,2.775,3.59,5.67,47986,0,4607,,,10.11,N,N,56.067,0.64
317 Roxane (A891 RD),2.287,0.0855,1.77,151.35,187.24,2.091,2.48,3.46,47921,0,4202,,,9.82,N,N,18.648,0.16
318 Magdalena (A891 SA),3.192,0.0850,10.66,161.49,295.42,2.921,3.46,5.7,47890,0,4369,,,9.51,N,N,85,
319 Leona (A891 TA),3.415,0.2160,10.57,184.87,227.18,2.677,4.15,6.31,47951,0,4083,,,10.22,N,N,49.943,0.48
320 Katharina (A891 TB),3.011,0.1163,9.39,219.76,148.47,2.660,3.36,5.22,42084,0,4043,,,10.81,N,N,23.362,0.47
321 Florentina (A891 TC),2.884,0.0474,2.59,40.21,35.06,2.747,3.02,4.9,47428,0,3927,,,10.16,N,N,27.974,0.10
322 Phaeo (A891 WB),2.784,0.2447,8.04,252.30,114.81,2.103,3.46,4.64,47902,0,3594,,,9.11,N,N,69.855,0.32
323 Brucia (A891 YB),2.382,0.2997,24.26,97.29,291.59,1.668,3.10,3.68,47748,0,3564,,,9.55,N,N,27.714,0.30
324 Bamberga (A892 DA),2.68,0.3413,11.10,327.85,44.14,1.766,3.60,4.39,47796,0,3626,,,7.12,N,N,220.691,1.44
325 Heidelberga (A892 EA),3.215,0.1513,8.57,344.21,70.74,2.729,3.70,5.77,47809,0,3716,,,8.76,N,N,75.72,1.70
326 Tamara (A892 FD),2.318,0.1896,23.72,32.17,238.52,1.878,2.76,3.53,47244,0,3605,,,9.34,N,N,93.00,1.70
327 Columbia (A892 FE),2.775,0.0609,7.14,354.75,308.20,2.606,2.94,4.62,47698,0,4986,,,10.03,N,N,30.291,4.05
328 Gudrun (A892 FF),3.108,0.1073,16.13,351.89,107.26,2.775,3.44,5.48,40688,0,3430,,,8.86,N,N,145.680,0.69
329 Svea (A892 FG),2.477,0.0253,15.88,178.45,57.95,2.415,2.54,3.9,47790,0,4470,,,9.66,N,N,81.057,0.50
331 Etheridgea (A892 GA),3.027,0.0959,6.04,21.85,334.02,2.737,3.32,5.27,47779,0,4081,,,9.81,N,N,74.92,2.70
332 Siri (A892 FH),2.772,0.0884,2.85,31.54,298.16,2.527,3.02,4.62,47702,0,4437,,,9.74,N,N,40.37,1.80
333 Badenia (A892 QA),3.132,0.1600,3.74,353.15,23.06,2.631,3.63,5.54,10548,0,3745,,,9.51,N,N,72.199,0.26
334 Chicago (A892 QB),3.894,0.0250,4.64,130.16,153.64,3.796,3.99,7.68,47592,0,4203,,,7.73,N,N,198.770,5.60
335 Roberta (A892 RB),2.476,0.1723,5.10,148.42,139.82,2.049,2.90,3.9,47626,0,4697,,,9.11,N,N,97.109,0.85
336 Lacadiera (A892 SA),2.252,0.0953,5.65,234.99,30.95,2.037,2.47,3.38,47609,0,4304,,,9.85,N,N,63.356,11.38
337 Devosa (A892 SB),2.384,0.1364,7.86,355.34,99.46,2.059,2.71,3.68,47603,0,3238,,,8.81,N,N,64.549,1.30
338 Budrosa (A892 SF),2.911,0.0182,6.04,287.31,109.21,2.858,2.96,4.97,47601,0,3611,,,8.60,N,N,50.506,0.48
339 Dorothea (A892 SC),3.012,0.0992,9.97,173.49,164.68,2.713,3.31,5.23,47548,0,4300,,,9.46,N,N,44.329,0.27
340 Eduarda (A892 SD),2.746,0.1171,4.67,26.95,43.09,2.424,3.07,4.55,47441,0,4016,,,10.01,N,N,28.025,0.46
341 California (A892 SE),2.2,0.1943,5.67,29.01,293.92,1.772,2.63,3.26,47549,0,4170,,,11.36,N,N,15.830,0.82
342 Endymion (A892 UA),2.567,0.1302,7.35,232.65,224.89,2.233,2.90,4.11,47485,0,4002,,,10.25,N,N,64.266,1.72
343 Ostara (A892 VA),2.411,0.2299,3.26,38.58,10.24,1.857,2.97,3.74,47461,0,3784,,,11.74,N,N,18.213,0.08
344 Desiderata (A892 WA),2.595,0.3140,18.35,48.00,237.49,1.780,3.41,4.18,47544,0,3350,,,8.36,N,N,124.181,2.52
345 Tercidina (A892 WB),2.325,0.0620,9.75,212.59,230.97,2.180,2.47,3.54,47463,0,3788,,,8.98,N,N,90.243,24.56
346 Hermentaria (A892 WC),2.797,0.1032,8.75,91.91,291.59,2.508,3.09,4.68,47505,0,3049,,,7.41,N,N,86.447,1.93
347 Pariana (A892 WD),2.616,0.1641,11.67,85.33,86.85,2.186,3.05,4.23,47519,0,4042,,,9.07,N,N,48.615,0.12
348 May (A892 WE),2.969,0.0714,9.76,89.90,13.43,2.757,3.18,5.12,47365,0,4371,,,9.44,N,N,82.82,2.20
349 Dembowska (A892 XB),2.923,0.0895,8.25,32.19,344.31,2.662,3.18,5,47490,0,3016,,,6.04,N,N,139.77,4.30
350 Ornamenta (A892 XC),3.107,0.1602,24.90,90.08,337.77,2.609,3.61,5.48,47440,0,3515,,,8.44,N,N,128.729,1.20
351 Yrsa (A892 YA),2.766,0.1560,9.21,99.19,31.76,2.334,3.20,4.6,47487,0,3653,,,9.09,N,N,39.720,0.44
352 Gisela (A893 AB),2.194,0.1494,3.38,247.22,144.44,1.866,2.52,3.25,47493,0,3886,,,10.18,N,N,26.744,0.79
353 Ruperto-Carola (A893 BB),2.735,0.3280,5.71,102.46,321.20,1.838,3.63,4.52,47435,0,4459,,,10.96,N,N,14.025,0.78
354 Eleonora (A893 BC),2.801,0.1115,18.36,140.25,7.52,2.489,3.11,4.69,47485,0,3202,,,6.45,N,N,148.970,0.42
355 Gabriella (A893 BD),2.538,0.1060,4.29,351.65,107.19,2.269,2.81,4.04,47483,0,3930,,,10.20,N,N,24.040,0.28
356 Liguria (A893 BE),2.755,0.2414,8.20,354.50,79.35,2.090,3.42,4.57,47360,0,3518,,,8.43,N,N,145.503,1.44
357 Ninina (A893 CB),3.151,0.0776,15.05,137.63,255.69,2.906,3.40,5.59,47447,0,4081,,,8.90,N,N,124.107,0.86
358 Apollonia (A893 EC),2.878,0.1530,3.56,172.14,252.37,2.438,3.32,4.88,47406,0,4638,,,9.20,N,N,90.116,0.81
359 Georgia (A893 ED),2.728,0.1567,6.77,6.00,337.92,2.300,3.16,4.51,47436,0,3620,,,9.35,N,N,43.89,4.20
360 Carlova (A893 EE),3.005,0.1737,11.74,132.20,289.97,2.483,3.53,5.21,47435,0,4172,,,8.57,N,N,129.125,2.83
361 Bononia (A893 EF),3.969,0.2105,12.61,18.78,68.03,3.134,4.80,7.91,47400,0,3416,,,8.45,N,N,154.334,5.41
362 Havnia (A893 EG),2.578,0.0447,8.06,27.31,31.39,2.463,2.69,4.14,47350,0,3814,,,9.18,N,N,98,
363 Padua (A893 FD),2.748,0.0725,5.95,64.71,296.05,2.549,2.95,4.56,11369,0,4825,,,9.08,N,N,97,
364 Isara (A893 FE),2.221,0.1490,6.00,105.51,313.15,1.890,2.55,3.31,47264,0,3923,,,9.81,N,N,25.901,0.67
365 Corduba (A893 FF),2.802,0.1562,12.80,185.14,215.45,2.365,3.24,4.69,47426,0,4413,,,9.25,N,N,86.773,0.36
366 Vincentina (A893 FG),3.143,0.0565,10.58,346.69,333.97,2.965,3.32,5.57,47345,0,4193,,,8.71,N,N,86.368,0.34
367 Amicitia (A893 KB),2.219,0.0963,2.94,83.44,55.42,2.005,2.43,3.31,42597,0,3841,,,10.72,N,N,21.243,0.63
368 Haidea (A893 KC),3.072,0.2013,7.80,226.30,95.53,2.453,3.69,5.38,42723,0,4307,,,10.00,N,N,69.277,0.20
369 Aeria (A893 NA),2.648,0.0972,12.72,94.14,269.99,2.391,2.91,4.31,47224,0,3673,,,8.70,N,N,73.767,1.07
370 Modestia (A893 NB),2.325,0.0907,7.86,290.90,68.39,2.114,2.54,3.54,47310,0,3716,,,10.72,N,N,38.093,0.11
371 Bohemia (A893 OA),2.727,0.0633,7.40,283.38,342.12,2.555,2.90,4.5,47306,0,3837,,,8.70,N,N,52.976,0.62
372 Palma (A893 QB),3.161,0.2529,23.79,327.24,115.19,2.362,3.96,5.62,47274,0,3200,,,7.41,N,N,173.642,2.84
373 Melusina (A893 RA),3.122,0.1378,15.38,3.63,349.06,2.692,3.55,5.52,44126,0,4193,,,9.17,N,N,98.695,0.95
374 Burgundia (A893 SA),2.78,0.0790,8.99,218.98,26.13,2.560,3.00,4.64,43470,0,4114,,,8.83,N,N,44.67,1.30
375 Ursula (A893 SB),3.126,0.1031,15.94,336.41,341.57,2.804,3.45,5.53,47228,0,3313,,,7.51,N,N,216,
376 Geometria (A893 SC),2.288,0.1728,5.43,301.96,316.66,1.893,2.68,3.46,45250,0,3884,,,9.53,N,N,35.465,0.05
377 Campania (A893 SD),2.691,0.0754,6.68,209.93,196.35,2.488,2.89,4.41,47228,0,4014,,,9.09,N,N,90.346,0.56
378 Holmia (A893 XA),2.777,0.1307,7.01,232.35,156.80,2.414,3.14,4.63,47096,0,4036,,,9.87,N,N,27.831,0.36
379 Huenna (A894 AA),3.143,0.1798,1.67,171.86,180.84,2.578,3.71,5.57,47131,0,5292,,,9.03,N,N,84.787,1.56
380 Fiducia (A894 AB),2.678,0.1128,6.16,95.02,240.21,2.376,2.98,4.38,46969,0,4211,,,9.57,N,N,67.508,2.46
381 Myrrha (A894 AC),3.222,0.0897,12.56,125.07,144.19,2.933,3.51,5.78,47063,0,4178,,,8.44,N,N,127.639,1.69
